NORAD_CAT_ID,OBJECT_NAME,OBJECT_TYPE,EPOCH,MEAN_MOTION,ECCENTRICITY,INCLINATION,RA_OF_ASC_NODE,ARG_OF_PERICENTER,MEAN_ANOMALY,BSTAR,MEAN_MOTION_DOT,MEAN_MOTION_DDOT,TLE_LINE0,TLE_LINE1,TLE_LINE2,SEMIMAJOR_AXIS,PERIOD,APOGEE,PERIGEE,DECAYED
55676.0,STARLINK-5300,PAYLOAD,2023-06-18 06:35:08,15.69942637,0.0003642,69.9994,171.1164,264.8768,95.2012,0.00012785,0.000152,0.0,0 STARLINK-5300,1 55676U 23021BA  23169.27440746  .00015200  00000-0  12785-3 0  9996,2 55676  69.9994 171.1164 0003642 264.8768  95.2012 15.69942637 19454,6737.198,91.723,361.517,356.609,0.0
55676.0,STARLINK-5300,PAYLOAD,2023-06-18 17:17:24,15.69932455,0.0003237,69.9991,169.863,262.9023,97.1805,2.7945e-05,3.15e-05,0.0,0 STARLINK-5300,1 55676U 23021BA  23169.72042531  .00003150  00000-0  27945-4 0  9992,2 55676  69.9991 169.8630 0003237 262.9023  97.1805 15.69932455 19522,6737.227,91.724,361.273,356.911,0.0
55676.0,STARLINK-5300,PAYLOAD,2023-06-19 11:38:26,15.69930109,0.0003688,69.9989,167.7114,264.0132,96.0643,2.3649e-05,2.632e-05,0.0,0 STARLINK-5300,1 55676U 23021BA  23170.48502389  .00002632  00000-0  23649-4 0  9990,2 55676  69.9989 167.7114 0003688 264.0132  96.0643 15.69930109 19956,6737.234,91.724,361.584,356.614,0.0
55676.0,STARLINK-5300,PAYLOAD,2023-06-20 05:59:27,15.69929785,0.0003448,69.9997,165.564,261.8137,98.2667,2.7592e-05,3.107e-05,0.0,0 STARLINK-5300,1 55676U 23021BA  23171.24962533  .00003107  00000-0  27592-4 0  9995,2 55676  69.9997 165.5640 0003448 261.8137  98.2667 15.69929785 20072,6737.235,91.724,361.423,356.777,0.0
55676.0,STARLINK-5300,PAYLOAD,2023-06-20 12:06:28,15.69930308,0.0003507,69.9995,164.8473,262.1933,97.8865,2.9587e-05,3.347e-05,0.0,0 STARLINK-5300,1 55676U 23021BA  23171.50449165  .00003347  00000-0  29587-4 0  9997,2 55676  69.9995 164.8473 0003507 262.1933  97.8865 15.69930308 19807,6737.233,91.724,361.461,356.736,0.0
55676.0,STARLINK-5300,PAYLOAD,2023-06-21 01:52:14,15.69922241,0.0003422,70.0003,163.2351,262.2275,97.8532,9.7308e-06,9.57e-06,0.0,0 STARLINK-5300,1 55676U 23021BA  23172.07794605  .00000957  00000-0  97308-5 0  9993,2 55676  70.0003 163.2351 0003422 262.2275  97.8532 15.69922241 19891,6737.256,91.724,361.427,356.816,0.0
55676.0,STARLINK-5300,PAYLOAD,2023-06-21 09:30:59,15.69926867,0.0003563,69.9981,162.338,271.2773,88.8014,1.5486e-05,1.65e-05,0.0,0 STARLINK-5300,1 55676U 23021BA  23172.39652729  .00001650  00000-0  15486-4 0  9995,2 55676  69.9981 162.3380 0003563 271.2773  88.8014 15.69926867 20259,6737.243,91.724,361.509,356.708,0.0
55676.0,STARLINK-5300,PAYLOAD,2023-06-22 02:20:16,15.69924259,0.0003487,69.9979,160.3675,265.933,94.1467,1.0559e-05,1.057e-05,0.0,0 STARLINK-5300,1 55676U 23021BA  23173.09741266  .00001057  00000-0  10559-4 0  9995,2 55676  69.9979 160.3675 0003487 265.9330  94.1467 15.69924259 20058,6737.251,91.724,361.465,356.766,0.0
55676.0,STARLINK-5300,PAYLOAD,2023-06-23 08:55:19,15.69916015,0.0003076,69.9993,156.7856,268.0566,92.0277,-1.3484e-05,-1.833e-05,0.0,0 STARLINK-5300,1 55676U 23021BA  23174.37175167 -.00001833  00000-0 -13484-4 0  9992,2 55676  69.9993 156.7856 0003076 268.0566  92.0277 15.69916015 20252,6737.274,91.725,361.212,357.067,0.0
55676.0,STARLINK-5300,PAYLOAD,2023-06-23 16:34:04,15.6992148,0.000384,69.9981,155.8897,265.4551,94.6206,5.4071e-06,4.37e-06,0.0,0 STARLINK-5300,1 55676U 23021BA  23174.69033079  .00000437  00000-0  54071-5 0  9997,2 55676  69.9981 155.8897 0003840 265.4551  94.6206 15.69921480 20306,6737.259,91.724,361.711,356.537,0.0
55676.0,STARLINK-5300,PAYLOAD,2023-06-25 02:12:37,15.69929325,0.0003369,69.9986,151.9489,266.7277,93.3534,1.8888e-05,2.059e-05,0.0,0 STARLINK-5300,1 55676U 23021BA  23176.09209673  .00002059  00000-0  18888-4 0  9995,2 55676  69.9986 151.9489 0003369 266.7277  93.3534 15.69929325 20520,6737.236,91.724,361.371,356.831,0.0
55676.0,STARLINK-5300,PAYLOAD,2023-06-26 01:08:54,15.6991818,0.0003396,69.9985,149.2617,265.1545,94.9263,-1.1256e-06,-3.48e-06,0.0,0 STARLINK-5300,1 55676U 23021BA  23177.04785382 -.00000348  00000-0 -11256-5 0  9991,2 55676  69.9985 149.2617 0003396 265.1545  94.9263 15.69918180 20672,6737.268,91.725,361.421,356.845,0.0
55676.0,STARLINK-5300,PAYLOAD,2023-06-27 04:40:26,15.69932148,0.0003373,69.9992,146.0375,258.0091,102.0727,1.8738e-05,2.042e-05,0.0,0 STARLINK-5300,1 55676U 23021BA  23178.19474832  .00002042  00000-0  18738-4 0  9995,2 55676  69.9992 146.0375 0003373 258.0091 102.0727 15.69932148 20854,6737.228,91.724,361.366,356.821,0.0
55676.0,STARLINK-5300,PAYLOAD,2023-06-27 09:15:46,15.69824116,0.0002684,69.9991,145.5005,262.0549,98.0342,-0.00019422,-0.00023401,0.0,0 STARLINK-5300,1 55676U 23021BA  23178.38595043 -.00023401  00000-0 -19422-3 0  9998,2 55676  69.9991 145.5005 0002684 262.0549  98.0342 15.69824116 20889,6737.537,91.73,361.211,357.594,0.0
55676.0,STARLINK-5300,PAYLOAD,2023-06-27 15:22:42,15.69925807,0.0003868,69.9981,144.7819,265.0379,95.0375,1.4282e-05,1.505e-05,0.0,0 STARLINK-5300,1 55676U 23021BA  23178.64076789  .00001505  00000-0  14282-4 0  9997,2 55676  69.9981 144.7819 0003868 265.0379  95.0375 15.69925807 20928,6737.246,91.724,361.717,356.505,0.0
55676.0,STARLINK-5300,PAYLOAD,2023-06-29 01:01:15,15.69918525,0.0003782,69.9988,140.8433,266.6588,93.4175,-8.5906e-06,-1.246e-05,0.0,0 STARLINK-5300,1 55676U 23021BA  23180.04254211 -.00001246  00000-0 -85906-5 0  9998,2 55676  69.9988 140.8433 0003782 266.6588  93.4175 15.69918525 21142,6737.267,91.725,361.68,356.584,0.0
55676.0,STARLINK-5300,PAYLOAD,2023-07-01 06:32:34,15.6991923,0.0002497,69.9994,134.5702,268.1973,91.8937,7.4603e-06,6.85e-06,0.0,0 STARLINK-5300,1 55676U 23021BA  23182.27262671  .00000685  00000-0  74603-5 0  9990,2 55676  69.9994 134.5702 0002497 268.1973  91.8937 15.69919230 21495,6737.265,91.724,360.812,357.448,0.0
55676.0,STARLINK-5300,PAYLOAD,2023-07-02 08:32:22,15.69919485,0.0003152,70.0001,131.5251,271.2234,88.8601,-1.756e-06,-4.24e-06,0.0,0 STARLINK-5300,1 55676U 23021BA  23183.35581038 -.00000424  00000-0 -17560-5 0  9993,2 55676  70.0001 131.5251 0003152 271.2234  88.8601 15.69919485 21662,6737.264,91.724,361.253,357.006,0.0
55676.0,STARLINK-5300,PAYLOAD,2023-07-03 05:56:53,15.69928199,0.0003475,69.9992,129.0179,264.8892,95.1907,1.6303e-05,1.748e-05,0.0,0 STARLINK-5300,1 55676U 23021BA  23184.24784133  .00001748  00000-0  16303-4 0  9994,2 55676  69.9992 129.0179 0003475 264.8892  95.1907 15.69928199 21803,6737.239,91.724,361.446,356.763,0.0
55676.0,STARLINK-5300,PAYLOAD,2023-07-04 00:17:55,15.69925602,0.0003272,70.0,126.8693,261.8922,98.1902,1.5862e-05,1.695e-05,0.0,0 STARLINK-5300,1 55676U 23021BA  23185.01244397  .00001695  00000-0  15862-4 0  9993,2 55676  70.0000 126.8693 0003272 261.8922  98.1902 15.69925602 21925,6737.247,91.724,361.316,356.907,0.0
55676.0,STARLINK-5300,PAYLOAD,2023-07-05 05:21:12,15.69926526,0.0003574,69.9989,123.4655,259.4159,100.6634,1.466e-05,1.55e-05,0.0,0 STARLINK-5300,1 55676U 23021BA  23186.22306107  .00001550  00000-0  14660-4 0  9990,2 55676  69.9989 123.4655 0003574 259.4159 100.6634 15.69926526 22118,6737.244,91.724,361.517,356.701,0.0
55676.0,STARLINK-5300,PAYLOAD,2023-07-05 23:42:14,15.69920318,0.0003583,69.9994,121.3166,258.0695,102.0099,1.0858e-05,1.093e-05,0.0,0 STARLINK-5300,1 55676U 23021BA  23186.98766566  .00001093  00000-0  10858-4 0  9999,2 55676  69.9994 121.3166 0003583 258.0695 102.0099 15.69920318 22235,6737.262,91.724,361.541,356.713,0.0
55676.0,STARLINK-5300,PAYLOAD,2023-07-06 07:20:59,15.6992979,0.0003581,69.999,120.4209,259.1892,100.8901,2.0259e-05,2.224e-05,0.0,0 STARLINK-5300,1 55676U 23021BA  23187.30624465  .00002224  00000-0  20259-4 0  9990,2 55676  69.9990 120.4209 0003581 259.1892 100.8901 15.69929790 22284,6737.235,91.724,361.512,356.687,0.0
55676.0,STARLINK-5300,PAYLOAD,2023-07-07 12:24:17,15.69926487,0.0003489,69.9985,117.0168,260.2164,99.8638,1.5452e-05,1.646e-05,0.0,0 STARLINK-5300,1 55676U 23021BA  23188.51686366  .00001646  00000-0  15452-4 0  9998,2 55676  69.9985 117.0168 0003489 260.2164  99.8638 15.69926487 22471,6737.244,91.724,361.46,356.759,0.0
55676.0,STARLINK-5300,PAYLOAD,2023-07-08 06:45:19,15.69911068,0.000355,69.9989,114.8674,260.1118,99.9677,-1.9194e-05,-2.519e-05,0.0,0 STARLINK-5300,1 55676U 23021BA  23189.28147001 -.00002519  00000-0 -19194-4 0  9990,2 55676  69.9989 114.8674 0003550 260.1118  99.9677 15.69911068 22595,6737.288,91.725,361.545,356.762,0.0
55676.0,STARLINK-5300,PAYLOAD,2023-07-09 02:38:05,15.69921284,0.0003231,69.9987,112.5385,265.3041,94.7786,1.4336e-05,1.511e-05,0.0,0 STARLINK-5300,1 55676U 23021BA  23190.10978586  .00001511  00000-0  14336-4 0  9995,2 55676  69.9987 112.5385 0003231 265.3041  94.7786 15.69921284 22725,6737.259,91.724,361.301,356.947,0.0
55676.0,STARLINK-5300,PAYLOAD,2023-07-10 03:06:07,15.69933086,0.0003131,70.0001,109.6732,253.5383,106.5469,3.718e-05,4.262e-05,0.0,0 STARLINK-5300,1 55676U 23021BA  23191.12924877  .00004262  00000-0  37180-4 0  9990,2 55676  70.0001 109.6732 0003131 253.5383 106.5469 15.69933086 22885,6737.225,91.724,361.2,356.981,0.0
55676.0,STARLINK-5300,PAYLOAD,2023-07-10 12:16:38,15.69923978,0.0003147,69.9997,108.5972,263.4977,96.586,1.9466e-05,2.128e-05,0.0,0 STARLINK-5300,1 55676U 23021BA  23191.51155235  .00002128  00000-0  19466-4 0  9993,2 55676  69.9997 108.5972 0003147 263.4977  96.5860 15.69923978 22945,6737.251,91.724,361.237,356.996,0.0
55676.0,STARLINK-5300,PAYLOAD,2023-07-12 04:02:10,15.69937035,0.0003522,70.0002,103.9394,267.7243,92.355,4.2438e-05,4.896e-05,0.0,0 STARLINK-5300,1 55676U 23021BA  23193.16818087  .00004896  00000-0  42438-4 0  9996,2 55676  70.0002 103.9394 0003522 267.7243  92.3550 15.69937035 23201,6737.214,91.723,361.452,356.706,0.0
55676.0,STARLINK-5300,PAYLOAD,2023-07-12 11:40:56,15.69926214,0.0003594,69.9992,103.0431,266.0271,94.0514,1.3317e-05,1.389e-05,0.0,0 STARLINK-5300,1 55676U 23021BA  23193.48676787  .00001389  00000-0  13317-4 0  9998,2 55676  69.9992 103.0431 0003594 266.0271  94.0514 15.69926214 23252,6737.245,91.724,361.531,356.689,0.0
